0 METOP-A
1 29499U 06044A   13281.55607105  .00000059  00000-0  46901-4 0  1609
2 29499 098.7007 339.7201 0002175 122.5385 237.6003 14.21488048361687
0 METOP-A
1 29499U 06044A   13282.75267646  .00000052  00000-0  43844-4 0  1611
2 29499 098.7007 340.8995 0002202 120.7726 239.3668 14.21488785361853
0 METOP-A
1 29499U 06044A   13284.16044660  .00000077  00000-0  55338-4 0  1626
2 29499 098.7005 342.2870 0002201 118.6196 241.5202 14.21489009362057
0 METOP-A
1 29499U 06044A   13285.42743924  .00000087  00000-0  59841-4 0  1630
2 29499 098.7004 343.5358 0002167 117.2571 242.8827 14.21489068362236
0 METOP-A
1 29499U 06044A   13286.48326666  .00000095  00000-0  63415-4 0  1649
2 29499 098.7001 344.5765 0002189 115.7253 244.4151 14.21489250362387
0 METOP-A
1 29499U 06044A   13287.75025958  .00000108  00000-0  69200-4 0  1654
2 29499 098.6997 345.8254 0002189 113.9879 246.1528 14.21489944362568
0 METOP-A
1 29499U 06044A   13288.80608623  .00000112  00000-0  71285-4 0  1669
2 29499 098.6994 346.8660 0002191 112.4424 247.6985 14.21490334362715
0 METOP-A
1 29499U 06044A   13290.14346627  .00000125  00000-0  77007-4 0  1675
2 29499 098.6990 348.1841 0002171 110.3296 249.8114 14.21490820362908
0 METOP-A
1 29499U 06044A   13291.48084611  .00000117  00000-0  73646-4 0  1682
2 29499 098.6987 349.5020 0002175 108.6125 251.5289 14.21491287363095
0 METOP-A
1 29499U 06044A   13292.81822559  .00000106  00000-0  68232-4 0  1695
2 29499 098.6985 350.8198 0002187 106.7715 253.3702 14.21491822363287
0 METOP-A
1 29499U 06044A   13294.15560432  .00000102  00000-0  66597-4 0  1703
2 29499 098.6984 352.1376 0002158 104.9374 255.2042 14.21492334363476
0 METOP-A
1 29499U 06044A   13295.42259430  .00000123  00000-0  76052-4 0  1718
2 29499 098.6985 353.3860 0002159 102.7466 257.3952 14.21492622363650
